NORAD_CAT_ID,OBJECT_NAME,OBJECT_TYPE,EPOCH,MEAN_MOTION,ECCENTRICITY,INCLINATION,RA_OF_ASC_NODE,ARG_OF_PERICENTER,MEAN_ANOMALY,BSTAR,MEAN_MOTION_DOT,MEAN_MOTION_DDOT,TLE_LINE0,TLE_LINE1,TLE_LINE2,SEMIMAJOR_AXIS,PERIOD,APOGEE,PERIGEE,DECAYED
51886.0,STARLINK-3565,PAYLOAD,2022-07-01 14:00:01,15.08843311,0.0001846,53.2175,286.5192,38.4945,343.594,-0.00062292,-0.00010189,0.0,0 STARLINK-3565,1 51886U 22022AL  22182.58334491 -.00010189  00000-0 -62292-3 0  9993,2 51886  53.2175 286.5192 0001846  38.4945 343.5940 15.08843311  1304,6917.87,95.437,541.012,538.4580000000002,0.0
51886.0,STARLINK-3565,PAYLOAD,2022-07-01 22:00:00,15.08860623,0.0001791,53.2171,285.0222,37.2571,356.4216,-0.0020488,-0.00032766,0.0,0 STARLINK-3565,1 51886U 22022AL  22182.91667824 -.00032766  00000-0 -20488-2 0  9994,2 51886  53.2171 285.0222 0001791  37.2571 356.4216 15.08860623  1303,6917.816999999999,95.436,540.9209999999998,538.443,0.0
51886.0,STARLINK-3565,PAYLOAD,2022-07-02 14:00:01,15.08860614,0.0001859,53.2171,282.0305,39.4417,17.449,-0.0016785999999999,-0.00026919,0.0,0 STARLINK-3565,1 51886U 22022AL  22183.58334491 -.00026919  00000-0 -16786-2 0  9998,2 51886  53.2171 282.0305 0001859  39.4417  17.4490 15.08860614 20039,6917.816999999999,95.436,540.9680000000002,538.396,0.0
51886.0,STARLINK-3565,PAYLOAD,2022-07-02 22:00:00,15.08864662,0.0001833,53.2166,280.5332,40.401,28.1116,-0.0025112,-0.00040059,0.0,0 STARLINK-3565,1 51886U 22022AL  22183.91667824 -.00040059  00000-0 -25112-2 0  9998,2 51886  53.2166 280.5332 0001833  40.4010  28.1116 15.08864662  1309,6917.805,95.436,540.938,538.4019999999998,0.0
51886.0,STARLINK-3565,PAYLOAD,2022-07-03 06:00:00,15.08840038,0.0001720999999999,53.2166,279.036,46.43600000000001,33.6831,0.002028,0.00032135,0.0,0 STARLINK-3565,1 51886U 22022AL  22184.25001157  .00032135  00000-0  20280-2 0  9992,2 51886  53.2166 279.0360 0001721  46.4360  33.6831 15.08840038 20131,6917.88,95.438,540.936,538.555,0.0
51886.0,STARLINK-3565,PAYLOAD,2022-07-03 14:00:01,15.08859052,0.0001892,53.2163,277.5416,41.5988,50.1191,-0.0027618,-0.00043998,0.0,0 STARLINK-3565,1 51886U 22022AL  22184.58334491 -.00043998  00000-0 -27618-2 0  9991,2 51886  53.2163 277.5416 0001892  41.5988  50.1191 15.08859052  1301,6917.821999999999,95.436,540.996,538.378,0.0
51886.0,STARLINK-3565,PAYLOAD,2022-07-03 22:00:00,15.0884628,0.0001832,53.216,276.0441,41.5649,61.7518,-0.0051236999999999,-0.00080932,0.0,0 STARLINK-3565,1 51886U 22022AL  22184.91667824 -.00080932  00000-0 -51237-2 0  9990,2 51886  53.2160 276.0441 0001832  41.5649  61.7518 15.08846280  1308,6917.861,95.437,540.994,538.4590000000002,0.0
51886.0,STARLINK-3565,PAYLOAD,2022-07-04 14:00:01,15.08793808,0.0001942,53.2157,273.0526,42.9295,83.4976,0.00051698,7.939e-05,0.0,0 STARLINK-3565,1 51886U 22022AL  22185.58334491  .00007939  00000-0  51698-3 0  9991,2 51886  53.2157 273.0526 0001942  42.9295  83.4976 15.08793808  1305,6918.022,95.44,541.23,538.543,0.0
51886.0,STARLINK-3565,PAYLOAD,2022-07-04 22:00:00,15.08812741,0.0001828,53.2154,271.5551,41.9978,95.9776,0.0012565,0.00019751,0.0,0 STARLINK-3565,1 51886U 22022AL  22185.91667824  .00019751  00000-0  12565-2 0  9991,2 51886  53.2154 271.5551 0001828  41.9978  95.9776 15.08812741  1307,6917.964,95.439,541.0930000000002,538.564,0.0
51886.0,STARLINK-3565,PAYLOAD,2022-07-05 06:00:00,15.08841995,0.000174,53.2156,270.058,45.9194,103.6215,0.00086564,0.00013516,0.0,0 STARLINK-3565,1 51886U 22022AL  22186.25001157  .00013516  00000-0  86564-3 0  9994,2 51886  53.2156 270.0580 0001740  45.9194 103.6215 15.08841995 20435,6917.874,95.437,540.943,538.536,0.0
51886.0,STARLINK-3565,PAYLOAD,2022-07-05 14:00:01,15.08836269,0.0001944,53.2155,268.5634,40.0983,121.0502,0.001282,0.00020172,0.0,0 STARLINK-3565,1 51886U 22022AL  22186.58334491  .00020172  00000-0  12820-2 0  9999,2 51886  53.2155 268.5634 0001944  40.0983 121.0502 15.08836269  1300,6917.892,95.438,541.102,538.4119999999998,0.0
51886.0,STARLINK-3565,PAYLOAD,2022-07-05 22:00:00,15.08863404,0.000186,53.2154,267.0657,41.2268,131.5131,-0.0018224,-0.00029194,0.0,0 STARLINK-3565,1 51886U 22022AL  22186.91667824 -.00029194  00000-0 -18224-2 0  9994,2 51886  53.2154 267.0657 0001860  41.2268 131.5131 15.08863404  1309,6917.809,95.436,540.961,538.387,0.0
51886.0,STARLINK-3565,PAYLOAD,2022-07-06 06:00:00,15.08858237,0.000188,53.2158,265.5687,47.2632,137.0826,-0.0022158,-0.00035398,0.0,0 STARLINK-3565,1 51886U 22022AL  22187.25001157 -.00035398  00000-0 -22158-2 0  9997,2 51886  53.2158 265.5687 0001880  47.2632 137.0826 15.08858237 20583,6917.825,95.436,540.99,538.389,0.0
51886.0,STARLINK-3565,PAYLOAD,2022-07-06 14:00:01,15.08814413,0.0002122,53.2157,264.074,42.6557,153.2963,0.0016698,0.00026368,0.0,0 STARLINK-3565,1 51886U 22022AL  22187.58334491  .00026368  00000-0  16698-2 0  9990,2 51886  53.2157 264.0740 0002122  42.6557 153.2963 15.08814413  1300,6917.959,95.439,541.2919999999998,538.356,0.0
51886.0,STARLINK-3565,PAYLOAD,2022-07-06 22:00:00,15.08845106,0.0001998,53.2158,262.5761,43.8485,163.6793,-0.0014741,-0.00023676,0.0,0 STARLINK-3565,1 51886U 22022AL  22187.91667824 -.00023676  00000-0 -14741-2 0  9994,2 51886  53.2158 262.5761 0001998  43.8485 163.6793 15.08845106 20681,6917.865,95.437,541.112,538.3480000000002,0.0
51886.0,STARLINK-3565,PAYLOAD,2022-07-06 22:40:26,15.08825022,0.0001977,53.2164,262.4531,38.28,321.8332,0.00011101,1.478e-05,0.0,0 STARLINK-3565,1 51886U 22022AL  22187.94475525  .00001478  00000-0  11101-3 0  9994,2 51886  53.2164 262.4531 0001977  38.2800 321.8332 15.08825022 20691,6917.926,95.439,541.159,538.423,0.0
51886.0,STARLINK-3565,PAYLOAD,2022-07-07 11:23:31,15.08841515,0.0001995,53.2173,260.0716,44.2012,315.9139,-1.1387e-05,-4.69e-06,0.0,0 STARLINK-3565,1 51886U 22022AL  22188.47467294 -.00000469  00000-0 -11387-4 0  9995,2 51886  53.2173 260.0716 0001995  44.2012 315.9139 15.08841515 20775,6917.876,95.437,541.121,538.361,0.0
51886.0,STARLINK-3565,PAYLOAD,2022-07-07 22:00:00,15.08855439,0.0002046,53.2166,258.0868,44.6181,197.6949,-0.0011999,-0.00019342,0.0,0 STARLINK-3565,1 51886U 22022AL  22188.91667824 -.00019342  00000-0 -11999-2 0  9992,2 51886  53.2166 258.0868 0002046  44.6181 197.6949 15.08855439  1303,6917.833000000001,95.437,541.114,538.283,0.0
51886.0,STARLINK-3565,PAYLOAD,2022-07-08 14:00:01,15.08860182,0.0002196,53.2167,255.0952,41.5984,223.9722,0.00036028,5.453e-05,0.0,0 STARLINK-3565,1 51886U 22022AL  22189.58334491  .00005453  00000-0  36028-3 0  9994,2 51886  53.2167 255.0952 0002196  41.5984 223.9722 15.08860182 20931,6917.819,95.436,541.203,538.165,0.0
51886.0,STARLINK-3565,PAYLOAD,2022-07-08 22:00:01,15.08866211,0.0001963,53.2168,253.5971,42.1697,235.0893,-0.00042749,-7.09e-05,0.0,0 STARLINK-3565,1 51886U 22022AL  22189.91668981 -.00007090  00000-0 -42749-3 0  9993,2 51886  53.2168 253.5971 0001963  42.1697 235.0893 15.08866211  1307,6917.8,95.436,541.023,538.307,0.0
51886.0,STARLINK-3565,PAYLOAD,2022-07-09 06:00:00,15.08878759,0.0001852,53.217,252.1008,43.5562,245.243,-0.0052411,-0.00082831,0.0,0 STARLINK-3565,1 51886U 22022AL  22190.25001157 -.00082831  00000-0 -52411-2 0  9990,2 51886  53.2170 252.1008 0001852  43.5562 245.2430 15.08878759 21031,6917.762,95.435,540.908,538.346,0.0
51886.0,STARLINK-3565,PAYLOAD,2022-07-09 14:00:01,15.08794175,0.0002038,53.2167,250.606,37.0895,263.3195,-0.00052312,-8.594e-05,0.0,0 STARLINK-3565,1 51886U 22022AL  22190.58334491 -.00008594  00000-0 -52312-3 0  9991,2 51886  53.2167 250.6060 0002038  37.0895 263.3195 15.08794175  1308,6918.02,95.44,541.295,538.476,0.0
51886.0,STARLINK-3565,PAYLOAD,2022-07-09 20:00:01,15.08792474,0.0001907,53.2165,249.4826,38.5463,180.5153,-0.0013732,-0.00022048,0.0,0 STARLINK-3565,1 51886U 22022AL  22190.83334491 -.00022048  00000-0 -13732-2 0  9991,2 51886  53.2165 249.4826 0001907  38.5463 180.5153 15.08792474 21129,6918.026,95.441,541.21,538.571,0.0
51886.0,STARLINK-3565,PAYLOAD,2022-07-10 06:00:00,15.08821294,0.0001776999999999,53.2168,247.6122,40.6706,282.7949,-0.00040959,-6.798e-05,0.0,0 STARLINK-3565,1 51886U 22022AL  22191.25001157 -.00006798  00000-0 -40959-3 0  9994,2 51886  53.2168 247.6122 0001777  40.6706 282.7949 15.08821294 21187,6917.938,95.439,541.0319999999998,538.573,0.0
51886.0,STARLINK-3565,PAYLOAD,2022-07-10 14:00:01,15.08794044,0.0001981,53.2163,246.1174,36.24,298.797,0.0025642,0.00040706,0.0,0 STARLINK-3565,1 51886U 22022AL  22191.58334491  .00040706  00000-0  25642-2 0  9996,2 51886  53.2163 246.1174 0001981  36.2400 298.7970 15.08794044  1307,6918.021,95.44,541.256,538.515,0.0
51886.0,STARLINK-3565,PAYLOAD,2022-07-10 22:00:00,15.0881163,0.0001798,53.2161,244.6195,39.6015,306.9993,0.00046333,7.088e-05,0.0,0 STARLINK-3565,1 51886U 22022AL  22191.91667824  .00007088  00000-0  46333-3 0  9999,2 51886  53.2161 244.6195 0001798  39.6015 306.9993 15.08811630  1304,6917.967,95.439,541.076,538.5880000000002,0.0
51886.0,STARLINK-3565,PAYLOAD,2022-07-11 14:00:01,15.08805113,0.0001999,53.2155,241.6287,37.0519,332.6975,0.0027059,0.00042999,0.0,0 STARLINK-3565,1 51886U 22022AL  22192.58334491  .00042999  00000-0  27059-2 0  9997,2 51886  53.2155 241.6287 0001999  37.0519 332.6975 15.08805113 21396,6917.986999999999,95.44,541.235,538.469,0.0
51886.0,STARLINK-3565,PAYLOAD,2022-07-11 22:00:00,15.08817968,0.0001828,53.2153,240.1307,40.902,340.4248,0.0010817,0.00016959,0.0,0 STARLINK-3565,1 51886U 22022AL  22192.91667824  .00016959  00000-0  10817-2 0  9994,2 51886  53.2153 240.1307 0001828  40.9020 340.4248 15.08817968  1302,6917.948,95.439,541.077,538.548,0.0
51886.0,STARLINK-3565,PAYLOAD,2022-07-12 06:00:00,15.0885141,0.0001889,53.2152,238.635,42.1426,350.7557,-0.0015937,-0.00025571,0.0,0 STARLINK-3565,1 51886U 22022AL  22193.25001157 -.00025571  00000-0 -15937-2 0  9993,2 51886  53.2152 238.6350 0001889  42.1426 350.7557 15.08851410 21491,6917.846,95.437,541.0169999999998,538.404,0.0
